OBJECT_NAME,OBJECT_ID,EPOCH,MEAN_MOTION,ECCENTRICITY,INCLINATION,RA_OF_ASC_NODE,ARG_OF_PERICENTER,MEAN_ANOMALY,EPHEMERIS_TYPE,CLASSIFICATION_TYPE,NORAD_CAT_ID,ELEMENT_SET_NO,REV_AT_EPOCH,BSTAR,MEAN_MOTION_DOT,MEAN_MOTION_DDOT
INTELSAT 21 (IS-21),2012-045A,2026-06-11T02:42:09.827136,1.00272658,.00013434,0.0203,286.6591,164.5183,150.8253,0,U,38749,999,5046,0,-.268E-5,0
INTELSAT 23 (IS-23),2012-057A,2026-06-11T02:43:39.684000,1.00268552,.00000387,0.0150,305.1967,161.6700,140.5163,0,U,38867,999,4989,0,-.267E-5,0
FM-6,2013-058A,2026-06-10T22:01:38.563680,1.00268329,.00016818,0.0114,47.7834,116.7333,308.7742,0,U,39360,999,4601,0,.2E-7,0
INTELSAT 30 (IS-30),2014-062A,2026-06-10T08:07:25.339872,1.00279150,.00006799,0.0239,44.0695,291.1202,310.2689,0,U,40271,999,672,0,-.134E-5,0
DIRECTV 14,2014-078B,2026-06-10T06:23:38.662080,1.00270829,.00001882,0.0092,5.4718,266.0574,343.7738,0,U,40333,999,4197,0,-.108E-5,0
DIRECTV 15,2015-026A,2026-06-11T06:27:29.434752,1.00269264,.00006403,0.0049,67.4961,217.4786,328.6436,0,U,40663,999,4040,0,-.85E-6,0
SKY MEXICO-1,2015-026B,2026-06-11T03:46:05.079936,1.00270467,.00021024,0.0181,321.7818,140.0391,135.4087,0,U,40664,999,4039,0,-.217E-5,0
INTELSAT 34 (IS-34),2015-039A,2026-06-11T03:55:17.365152,1.00269785,.00003276,0.0094,328.5243,358.4756,295.8502,0,U,40874,999,3957,0,-.268E-5,0
INTELSAT 31 (IS-31),2016-035A,2026-06-10T23:06:22.064832,1.00269494,.00010634,0.0140,270.6422,328.4600,271.7540,0,U,41581,999,3662,0,-.133E-5,0
INTELSAT 36 (IS-36),2016-053A,2026-06-11T03:18:17.226432,1.00270466,.00018256,0.0127,6.8327,325.1366,45.5804,0,U,41747,999,3589,0,-.7E-7,0
INTELSAT 32E (IS-32E),2017-007B,2026-06-11T06:10:21.113184,1.00268917,.00005341,0.0031,63.2625,226.5375,19.2132,0,U,41945,999,3416,0,-.252E-5,0
INTELSAT 35E (IS-35E),2017-041A,2026-06-11T06:29:10.248864,1.00271003,.00017078,0.0186,323.9975,111.6838,246.7558,0,U,42818,999,3275,0,-.221E-5,0
INTELSAT 37E (IS-37E),2017-059A,2026-06-11T04:36:15.391584,1.00269953,.00023834,0.0179,10.9724,91.8332,207.7944,0,U,42950,999,3200,0,-.124E-5,0
AZERSPACE 2 (IS-38),2018-074A,2026-06-11T03:11:40.360992,1.00271976,.00011981,0.0036,69.3548,12.8510,270.3100,0,U,43632,999,2838,0,.154E-5,0
HORIZONS-3E,2018-074B,2026-06-09T03:52:26.934240,1.00270197,.0000957,0.0093,158.1609,124.5481,201.9406,0,U,43633,999,2826,0,-.14E-6,0
AT&T T-16,2019-034A,2026-06-09T16:16:49.046880,1.00268740,.00006409,0.0247,68.1337,190.5571,142.7032,0,U,44333,999,2555,0,-.98E-6,0
INTELSAT 39 (IS-39),2019-049B,2026-06-10T22:34:08.694624,1.00269836,.00010821,0.0255,336.9481,329.3092,353.5144,0,U,44476,999,2506,0,0,0
GALAXY 30 (G-30),2020-056C,2026-06-11T05:48:25.818336,1.00273396,.00019527,0.0018,1.2399,75.7680,144.7071,0,U,46114,999,2123,0,.54E-6,0
GALAXY 33 (G-33),2022-128A,2026-06-11T00:22:38.637408,1.00271757,.00017578,0.0123,333.5407,113.3766,45.1293,0,U,54026,999,1368,0,.96E-6,0
GALAXY 34 (G-34),2022-128B,2026-06-11T00:22:38.637408,1.00274952,.00017302,0.0211,339.9576,128.3812,27.7038,0,U,54027,999,1385,0,0,0
GALAXY 31 (G-31),2022-153A,2026-06-10T22:58:52.783104,1.00272181,.00011913,0.0159,295.5589,143.3346,44.1475,0,U,54243,999,707,0,.3E-6,0
GALAXY 32 (G-32),2022-153B,2026-06-09T07:46:18.681312,1.00270919,.00021646,0.0091,331.9838,65.0548,246.2445,0,U,54244,999,1306,0,-.157E-5,0
GALAXY 35 (G-35),2022-170A,2026-06-11T03:53:38.786208,1.00270987,.0001917,0.0142,286.5725,156.6973,141.5580,0,U,54741,999,1283,0,-.145E-5,0
GALAXY 36 (G-36),2022-170B,2026-06-10T23:08:06.897408,1.00272801,.00025454,0.0149,81.7144,0.1997,75.4373,0,U,54742,999,1271,0,-.168E-5,0
GALAXY 37 (G-37),2023-112A,2026-06-11T00:39:55.113408,1.00272103,.00018505,0.0179,4.3114,76.6676,61.3888,0,U,57493,999,1048,0,.65E-6,0
