1 38749U 12045A 26162.11261374 -.00000268 00000+0 00000+0 0 9990 
2 38749 0.0203 286.6591 0001343 164.5183 150.8253 1.00272658 50464 
1 38867U 12057A 26162.11365375 -.00000267 00000+0 00000+0 0 9999 
2 38867 0.0150 305.1967 0000038 161.6700 140.5163 1.00268552 49892 
1 39360U 13058A 26161.91780745 .00000002 00000+0 00000+0 0 9995 
2 39360 0.0114 47.7834 0001681 116.7333 308.7742 1.00268329 46015 
1 40271U 14062A 26161.33848773 -.00000134 00000+0 00000+0 0 9993 
2 40271 0.0239 44.0695 0000679 291.1202 310.2689 1.00279150 6726 
1 40333U 14078B 26161.26641970 -.00000108 00000+0 00000+0 0 9992 
2 40333 0.0092 5.4718 0000188 266.0574 343.7738 1.00270829 41973 
1 40663U 15026A 26162.26909068 -.00000085 00000+0 00000+0 0 9992 
2 40663 0.0049 67.4961 0000640 217.4786 328.6436 1.00269264 40402 
1 40664U 15026B 26162.15700324 -.00000217 00000+0 00000+0 0 9992 
2 40664 0.0181 321.7818 0002102 140.0391 135.4087 1.00270467 40396 
1 40874U 15039A 26162.16339543 -.00000268 00000+0 00000+0 0 9997 
2 40874 0.0094 328.5243 0000327 358.4756 295.8502 1.00269785 39578 
1 41581U 16035A 26161.96275538 -.00000133 00000+0 00000+0 0 9991 
2 41581 0.0140 270.6422 0001063 328.4600 271.7540 1.00269494 36620 
1 41747U 16053A 26162.13769938 -.00000007 00000+0 00000+0 0 9997 
2 41747 0.0127 6.8327 0001825 325.1366 45.5804 1.00270466 35890 
1 41945U 17007B 26162.25718881 -.00000252 00000+0 00000+0 0 9993 
2 41945 0.0031 63.2625 0000534 226.5375 19.2132 1.00268917 34161 
1 42818U 17041A 26162.27025751 -.00000221 00000+0 00000+0 0 9996 
2 42818 0.0186 323.9975 0001707 111.6838 246.7558 1.00271003 32759 
1 42950U 17059A 26162.19184481 -.00000124 00000+0 00000+0 0 9991 
2 42950 0.0179 10.9724 0002383 91.8332 207.7944 1.00269953 32007 
1 43632U 18074A 26162.13310603 .00000154 00000+0 00000+0 0 9990 
2 43632 0.0036 69.3548 0001198 12.8510 270.3100 1.00271976 28387 
1 43633U 18074B 26160.16142285 -.00000014 00000+0 00000+0 0 9997 
2 43633 0.0093 158.1609 0000957 124.5481 201.9406 1.00270197 28266 
1 44333U 19034A 26160.67834545 -.00000098 00000+0 00000+0 0 9997 
2 44333 0.0247 68.1337 0000640 190.5571 142.7032 1.00268740 25552 
1 44476U 19049B 26161.94037841 .00000000 00000+0 00000+0 0 9998 
2 44476 0.0255 336.9481 0001082 329.3092 353.5144 1.00269836 25065 
1 46114U 20056C 26162.24196549 .00000054 00000+0 00000+0 0 9993 
2 46114 0.0018 1.2399 0001952 75.7680 144.7071 1.00273396 21234 
1 54026U 22128A 26162.01572497 .00000096 00000+0 00000+0 0 9997 
2 54026 0.0123 333.5407 0001757 113.3766 45.1293 1.00271757 13689 
1 54027U 22128B 26162.01572497 .00000000 00000+0 00000+0 0 9993 
2 54027 0.0211 339.9576 0001730 128.3812 27.7038 1.00274952 13856 
1 54243U 22153A 26161.95755536 .00000030 00000+0 00000+0 0 9993 
2 54243 0.0159 295.5589 0001191 143.3346 44.1475 1.00272181 7075 
1 54244U 22153B 26160.32382733 -.00000157 00000+0 00000+0 0 9990 
2 54244 0.0091 331.9838 0002164 65.0548 246.2445 1.00270919 13063 
1 54741U 22170A 26162.16225447 -.00000145 00000+0 00000+0 0 9990 
2 54741 0.0142 286.5725 0001917 156.6973 141.5580 1.00270987 12832 
1 54742U 22170B 26161.96396872 -.00000168 00000+0 00000+0 0 9994 
2 54742 0.0149 81.7144 0002545 0.1997 75.4373 1.00272801 12716 
1 57493U 23112A 26162.02772122 .00000065 00000+0 00000+0 0 9996 
2 57493 0.0179 4.3114 0001850 76.6676 61.3888 1.00272103 10485 
